ONEWEB-0533             
1 55141U 23004B   23348.92601402 -.00000329  00000+0 -95080-3 0  9999
2 55141  87.9071 172.6721 0001342  85.2132 274.9150 13.12442736 48000
ONEWEB-0541             
1 55142U 23004C   23348.69868946 -.00000389  00000+0 -11322-2 0  9994
2 55142  87.8968 202.9823 0001538  80.4054 279.7248 13.11415719 45965
ONEWEB-0543             
1 55143U 23004D   23348.86601155  .00000029  00000+0  40641-4 0  9998
2 55143  87.9093 157.6824 0001194 106.1274 253.9989 13.18686633 49064
ONEWEB-0544             
1 55144U 23004E   23348.93555056 -.00000027  00000+0 -10238-3 0  9993
2 55144  87.9119 157.6504 0001676  96.6208 263.5115 13.18683365 49072
ONEWEB-0560             
1 55145U 23004F   23348.92923477 -.00000013  00000+0 -66422-4 0  9991
2 55145  87.9214 157.5696 0001548 114.9645 245.1648 13.18682519 49085
ONEWEB-0565             
1 55146U 23004G   23348.92291913  .00000003  00000+0 -24325-4 0  9999
2 55146  87.9142 157.6734 0002437  92.3983 267.7428 13.18686559 49075
ONEWEB-0567             
1 55147U 23004H   23348.91657644  .00000032  00000+0  47657-4 0  9990
2 55147  87.9118 157.6335 0001886 108.7791 251.3546 13.18683898 49075
ONEWEB-0569             
1 55148U 23004J   23348.91668981 -.01141714  00000+0 -81530+0 0  9996
2 55148  87.1914 144.3349 0004241 123.9192 262.0566 14.00501319  5580
